STARLINK-11601 [DTC]    
1 63110U 25039G   26059.25002315 -.00029536  00000+0 -22710-3 0  9991
2 63110  43.0003 293.7362 0001739 268.5597 354.2882 15.70880426  6039
STARLINK-11630 [DTC]    
1 63111U 25039H   26059.03409583  .00220466  00000+0  16722-2 0  9994
2 63111  43.0001 295.3349 0002298 268.2193  91.8411 15.70900594 58095
STARLINK-11590 [DTC]    
1 63112U 25039J   26059.04472148  .00203903  00000+0  15523-2 0  9998
2 63112  42.9977 295.4206 0000385 271.7928  88.2895 15.70863367 58091
STARLINK-11598 [DTC]    
1 63113U 25039K   26059.01816392  .00206822  00000+0  15723-2 0  9994
2 63113  43.0029 295.2061 0002780 274.4769  85.5781 15.70886883 58095
STARLINK-11600 [DTC]    
1 63114U 25039L   26059.06581773  .00193125  00000+0  14706-2 0  9993
2 63114  42.9999 294.6941 0002591 254.2111 105.8471 15.70891086 58102
STARLINK-11597 [DTC]    
1 63115U 25039M   26059.05520559  .00275765  00000+0  20806-2 0  9997
2 63115  42.9989 294.6095 0001639 264.1230  95.9450 15.70856304 58106
STARLINK-11591 [DTC]    
1 63116U 25039N   26059.11347927  .00261796  00000+0  19779-2 0  9997
2 63116  42.9994 294.1818 0001141 286.4976  73.5766 15.70866674 58117
STARLINK-32955          
1 63117U 25039P   26059.06243114  .00101916  00000+0  31393-2 0  9998
2 63117  43.0027  66.3591 0003761 143.1999 216.9113 15.32558557 56605
STARLINK-32945          
1 63118U 25039Q   26059.30650219  .00022266  00000+0  81630-3 0  9994
2 63118  43.0006  65.6114 0001287 258.3530 101.7178 15.27576216 56638
STARLINK-32941          
1 63119U 25039R   26059.04881945  .00016405  00000+0  60468-3 0  9992
2 63119  43.0013  55.8515 0000997 231.2563 128.8199 15.27562018 56724
STARLINK-32942          
1 63120U 25039S   26059.31292484  .00026840  00000+0  98114-3 0  9991
2 63120  43.0010  65.6556 0001301 261.0956  98.9748 15.27585748 56636
STARLINK-32947          
1 63121U 25039T   26059.28080106  .00032444  00000+0  11834-2 0  9994
2 63121  43.0039  65.4123 0001985 262.9047  97.1579 15.27578381 56633
STARLINK-32961          
1 63122U 25039U   26059.06294294  .00016628  00000+0  61242-3 0  9991
2 63122  43.0032  67.2244 0001060 255.5295 104.5439 15.27580069 56597
STARLINK-32948          
1 63123U 25039V   26059.05523847  .00022779  00000+0  83465-3 0  9995
2 63123  43.0002  67.1630 0001109 255.7266 104.3463 15.27583366 56595
STARLINK-32957          
1 63124U 25039W   26059.00397970  .00021017  00000+0  77123-3 0  9995
2 63124  43.0021  67.6420 0000334 271.1192  88.9621 15.27573736 56580
STARLINK-11609 [DTC]    
1 63132U 25043A   26059.04242884  .00204592  00000+0  15543-2 0  9994
2 63132  43.0017 308.9785 0002806 261.9689  98.0860 15.70909475 57942
