[{"OBJECT_NAME":"STARLINK-11601 [DTC]","OBJECT_ID":"2025-039G","EPOCH":"2026-02-28T06:00:02.000160","MEAN_MOTION":15.70880426,"ECCENTRICITY":0.00017396,"INCLINATION":43.0003,"RA_OF_ASC_NODE":293.7362,"ARG_OF_PERICENTER":268.5597,"MEAN_ANOMALY":354.2882,"EPHEMERIS_TYPE":0,"CLASSIFICATION_TYPE":"U","NORAD_CAT_ID":63110,"ELEMENT_SET_NO":999,"REV_AT_EPOCH":603,"BSTAR":-0.00022710284,"MEAN_MOTION_DOT":-0.00029536,"MEAN_MOTION_DDOT":0},{"OBJECT_NAME":"STARLINK-11630 [DTC]","OBJECT_ID":"2025-039H","EPOCH":"2026-02-28T00:49:05.879712","MEAN_MOTION":15.70900594,"ECCENTRICITY":0.00022986,"INCLINATION":43.0001,"RA_OF_ASC_NODE":295.3349,"ARG_OF_PERICENTER":268.2193,"MEAN_ANOMALY":91.8411,"EPHEMERIS_TYPE":0,"CLASSIFICATION_TYPE":"U","NORAD_CAT_ID":63111,"ELEMENT_SET_NO":999,"REV_AT_EPOCH":5809,"BSTAR":0.001672158,"MEAN_MOTION_DOT":0.00220466,"MEAN_MOTION_DDOT":0},{"OBJECT_NAME":"STARLINK-11590 [DTC]","OBJECT_ID":"2025-039J","EPOCH":"2026-02-28T01:04:23.935872","MEAN_MOTION":15.70863367,"ECCENTRICITY":3.858e-5,"INCLINATION":42.9977,"RA_OF_ASC_NODE":295.4206,"ARG_OF_PERICENTER":271.7928,"MEAN_ANOMALY":88.2895,"EPHEMERIS_TYPE":0,"CLASSIFICATION_TYPE":"U","NORAD_CAT_ID":63112,"ELEMENT_SET_NO":999,"REV_AT_EPOCH":5809,"BSTAR":0.0015523263,"MEAN_MOTION_DOT":0.00203903,"MEAN_MOTION_DDOT":0},{"OBJECT_NAME":"STARLINK-11598 [DTC]","OBJECT_ID":"2025-039K","EPOCH":"2026-02-28T00:26:09.362688","MEAN_MOTION":15.70886883,"ECCENTRICITY":0.00027801,"INCLINATION":43.0029,"RA_OF_ASC_NODE":295.2061,"ARG_OF_PERICENTER":274.4769,"MEAN_ANOMALY":85.5781,"EPHEMERIS_TYPE":0,"CLASSIFICATION_TYPE":"U","NORAD_CAT_ID":63113,"ELEMENT_SET_NO":999,"REV_AT_EPOCH":5809,"BSTAR":0.0015723246,"MEAN_MOTION_DOT":0.00206822,"MEAN_MOTION_DDOT":0},{"OBJECT_NAME":"STARLINK-11600 [DTC]","OBJECT_ID":"2025-039L","EPOCH":"2026-02-28T01:34:46.651872","MEAN_MOTION":15.70891086,"ECCENTRICITY":0.00025916,"INCLINATION":42.9999,"RA_OF_ASC_NODE":294.6941,"ARG_OF_PERICENTER":254.2111,"MEAN_ANOMALY":105.8471,"EPHEMERIS_TYPE":0,"CLASSIFICATION_TYPE":"U","NORAD_CAT_ID":63114,"ELEMENT_SET_NO":999,"REV_AT_EPOCH":5810,"BSTAR":0.0014706183,"MEAN_MOTION_DOT":0.00193125,"MEAN_MOTION_DDOT":0},{"OBJECT_NAME":"STARLINK-11597 [DTC]","OBJECT_ID":"2025-039M","EPOCH":"2026-02-28T01:19:29.762976","MEAN_MOTION":15.70856304,"ECCENTRICITY":0.00016392,"INCLINATION":42.9989,"RA_OF_ASC_NODE":294.6095,"ARG_OF_PERICENTER":264.123,"MEAN_ANOMALY":95.945,"EPHEMERIS_TYPE":0,"CLASSIFICATION_TYPE":"U","NORAD_CAT_ID":63115,"ELEMENT_SET_NO":999,"REV_AT_EPOCH":5810,"BSTAR":0.0020806476,"MEAN_MOTION_DOT":0.00275765,"MEAN_MOTION_DDOT":0},{"OBJECT_NAME":"STARLINK-11591 [DTC]","OBJECT_ID":"2025-039N","EPOCH":"2026-02-28T02:43:24.608928","MEAN_MOTION":15.70866674,"ECCENTRICITY":0.00011414,"INCLINATION":42.9994,"RA_OF_ASC_NODE":294.1818,"ARG_OF_PERICENTER":286.4976,"MEAN_ANOMALY":73.5766,"EPHEMERIS_TYPE":0,"CLASSIFICATION_TYPE":"U","NORAD_CAT_ID":63116,"ELEMENT_SET_NO":999,"REV_AT_EPOCH":5811,"BSTAR":0.0019779132,"MEAN_MOTION_DOT":0.00261796,"MEAN_MOTION_DDOT":0},{"OBJECT_NAME":"STARLINK-32955","OBJECT_ID":"2025-039P","EPOCH":"2026-02-28T01:29:54.050496","MEAN_MOTION":15.32558557,"ECCENTRICITY":0.00037612,"INCLINATION":43.0027,"RA_OF_ASC_NODE":66.3591,"ARG_OF_PERICENTER":143.1999,"MEAN_ANOMALY":216.9113,"EPHEMERIS_TYPE":0,"CLASSIFICATION_TYPE":"U","NORAD_CAT_ID":63117,"ELEMENT_SET_NO":999,"REV_AT_EPOCH":5660,"BSTAR":0.0031392777,"MEAN_MOTION_DOT":0.00101916,"MEAN_MOTION_DDOT":0},{"OBJECT_NAME":"STARLINK-32945","OBJECT_ID":"2025-039Q","EPOCH":"2026-02-28T07:21:21.789216","MEAN_MOTION":15.27576216,"ECCENTRICITY":0.0001287,"INCLINATION":43.0006,"RA_OF_ASC_NODE":65.6114,"ARG_OF_PERICENTER":258.353,"MEAN_ANOMALY":101.7178,"EPHEMERIS_TYPE":0,"CLASSIFICATION_TYPE":"U","NORAD_CAT_ID":63118,"ELEMENT_SET_NO":999,"REV_AT_EPOCH":5663,"BSTAR":0.00081629704,"MEAN_MOTION_DOT":0.00022266,"MEAN_MOTION_DDOT":0},{"OBJECT_NAME":"STARLINK-32941","OBJECT_ID":"2025-039R","EPOCH":"2026-02-28T01:10:18.000480","MEAN_MOTION":15.27562018,"ECCENTRICITY":9.976e-5,"INCLINATION":43.0013,"RA_OF_ASC_NODE":55.8515,"ARG_OF_PERICENTER":231.2563,"MEAN_ANOMALY":128.8199,"EPHEMERIS_TYPE":0,"CLASSIFICATION_TYPE":"U","NORAD_CAT_ID":63119,"ELEMENT_SET_NO":999,"REV_AT_EPOCH":5672,"BSTAR":0.00060468224,"MEAN_MOTION_DOT":0.00016405,"MEAN_MOTION_DDOT":0},{"OBJECT_NAME":"STARLINK-32942","OBJECT_ID":"2025-039S","EPOCH":"2026-02-28T07:30:36.706176","MEAN_MOTION":15.27585748,"ECCENTRICITY":0.00013011,"INCLINATION":43.001,"RA_OF_ASC_NODE":65.6556,"ARG_OF_PERICENTER":261.0956,"MEAN_ANOMALY":98.9748,"EPHEMERIS_TYPE":0,"CLASSIFICATION_TYPE":"U","NORAD_CAT_ID":63120,"ELEMENT_SET_NO":999,"REV_AT_EPOCH":5663,"BSTAR":0.00098114138,"MEAN_MOTION_DOT":0.0002684,"MEAN_MOTION_DDOT":0},{"OBJECT_NAME":"STARLINK-32947","OBJECT_ID":"2025-039T","EPOCH":"2026-02-28T06:44:21.211584","MEAN_MOTION":15.27578381,"ECCENTRICITY":0.00019855,"INCLINATION":43.0039,"RA_OF_ASC_NODE":65.4123,"ARG_OF_PERICENTER":262.9047,"MEAN_ANOMALY":97.1579,"EPHEMERIS_TYPE":0,"CLASSIFICATION_TYPE":"U","NORAD_CAT_ID":63121,"ELEMENT_SET_NO":999,"REV_AT_EPOCH":5663,"BSTAR":0.001183364,"MEAN_MOTION_DOT":0.00032444,"MEAN_MOTION_DDOT":0},{"OBJECT_NAME":"STARLINK-32961","OBJECT_ID":"2025-039U","EPOCH":"2026-02-28T01:30:38.270016","MEAN_MOTION":15.27580069,"ECCENTRICITY":0.00010609,"INCLINATION":43.0032,"RA_OF_ASC_NODE":67.2244,"ARG_OF_PERICENTER":255.5295,"MEAN_ANOMALY":104.5439,"EPHEMERIS_TYPE":0,"CLASSIFICATION_TYPE":"U","NORAD_CAT_ID":63122,"ELEMENT_SET_NO":999,"REV_AT_EPOCH":5659,"BSTAR":0.00061242123,"MEAN_MOTION_DOT":0.00016628,"MEAN_MOTION_DDOT":0},{"OBJECT_NAME":"STARLINK-32948","OBJECT_ID":"2025-039V","EPOCH":"2026-02-28T01:19:32.603808","MEAN_MOTION":15.27583366,"ECCENTRICITY":0.00011095,"INCLINATION":43.0002,"RA_OF_ASC_NODE":67.163,"ARG_OF_PERICENTER":255.7266,"MEAN_ANOMALY":104.3463,"EPHEMERIS_TYPE":0,"CLASSIFICATION_TYPE":"U","NORAD_CAT_ID":63123,"ELEMENT_SET_NO":999,"REV_AT_EPOCH":5659,"BSTAR":0.00083465092,"MEAN_MOTION_DOT":0.00022779,"MEAN_MOTION_DDOT":0},{"OBJECT_NAME":"STARLINK-32957","OBJECT_ID":"2025-039W","EPOCH":"2026-02-28T00:05:43.846080","MEAN_MOTION":15.27573736,"ECCENTRICITY":3.342e-5,"INCLINATION":43.0021,"RA_OF_ASC_NODE":67.642,"ARG_OF_PERICENTER":271.1192,"MEAN_ANOMALY":88.9621,"EPHEMERIS_TYPE":0,"CLASSIFICATION_TYPE":"U","NORAD_CAT_ID":63124,"ELEMENT_SET_NO":999,"REV_AT_EPOCH":5658,"BSTAR":0.00077122588,"MEAN_MOTION_DOT":0.00021017,"MEAN_MOTION_DDOT":0},{"OBJECT_NAME":"STARLINK-11609 [DTC]","OBJECT_ID":"2025-043A","EPOCH":"2026-02-28T01:01:05.851776","MEAN_MOTION":15.70909475,"ECCENTRICITY":0.00028062,"INCLINATION":43.0017,"RA_OF_ASC_NODE":308.9785,"ARG_OF_PERICENTER":261.9689,"MEAN_ANOMALY":98.086,"EPHEMERIS_TYPE":0,"CLASSIFICATION_TYPE":"U","NORAD_CAT_ID":63132,"ELEMENT_SET_NO":999,"REV_AT_EPOCH":5794,"BSTAR":0.0015543488,"MEAN_MOTION_DOT":0.00204592,"MEAN_MOTION_DDOT":0}]
